STARLINK-32899          
1 62994U 25031P   25317.05899483  .00048459  00000+0  17548-2 0  9991
2 62994  43.0064  82.3926 0002090 263.3982  96.6632 15.27657002 43254
STARLINK-32819          
1 62995U 25031Q   25316.37174121  .00090696  00000+0  32583-2 0  9997
2 62995  43.0028  85.8266 0003019 284.3289  75.7227 15.27645384 43152
STARLINK-32703          
1 62996U 25031R   25317.05387025  .00028593  00000+0  10440-2 0  9998
2 62996  43.0011  82.3514 0000512 317.1223  42.9589 15.27598854 43258
STARLINK-32881          
1 62997U 25031S   25317.08071963  .00043483  00000+0  15787-2 0  9997
2 62997  43.0018  81.6819 0001214 279.1666  80.9049 15.27614453 43262
STARLINK-32898          
1 62998U 25031T   25317.04745019  .00012159  00000+0  45065-3 0  9993
2 62998  43.0011  82.3004 0001215 287.2989  72.7730 15.27579115 43259
STARLINK-32658          
1 62999U 25031U   25316.36531862  .00088987  00000+0  31984-2 0  9993
2 62999  43.0071  85.7769 0003794 289.1667  70.8774 15.27638025 43151
STARLINK-32673          
1 63000U 25031V   25317.03716104  .00010588  00000+0  39347-3 0  9990
2 63000  42.9987  82.2206 0000604 302.7380  57.3414 15.27599472 43252
STARLINK-32437          
1 63001U 25031W   25317.06286582  .00020633  00000+0  75701-3 0  9992
2 63001  43.0038  82.4201 0000379 300.4581  59.6233 15.27589366 43251
STARLINK-11448 [DTC]    
1 63005U 25032A   25316.98784399  .00010545  00000+0  85509-4 0  9995
2 63005  43.0021 178.4242 0002403 269.5082  90.5510 15.70856780 43874
STARLINK-11553 [DTC]    
1 63006U 25032B   25316.97737728  .00252727  00000+0  19235-2 0  9990
2 63006  43.0004 179.2349 0001920 277.5841  82.4808 15.70719037 43859
STARLINK-11526 [DTC]    
1 63007U 25032C   25316.98252998  .00297192  00000+0  22159-2 0  9997
2 63007  42.9995 178.3803 0006025 252.8525 107.1683 15.71060995 43868
STARLINK-11405 [DTC]    
1 63008U 25032D   25317.09484408  .00224261  00000+0  17087-2 0  9995
2 63008  42.9987 178.3893 0001148 275.9110  84.1627 15.70780904 43721
STARLINK-11586 [DTC]    
1 63009U 25032E   25317.01443608  .00286456  00000+0  21664-2 0  9995
2 63009  42.9999 178.6358 0001044 351.8349   8.2501 15.70767087 43867
STARLINK-11574 [DTC]    
1 63010U 25032F   25317.08861266  .00173382  00000+0  13302-2 0  9991
2 63010  43.0001 178.3374 0001081 335.0450  25.0365 15.70777316 43870
STARLINK-11580 [DTC]    
1 63011U 25032G   25316.99848534  .00302075  00000+0  22699-2 0  9996
2 63011  43.0003 178.5065 0001728 315.3946  44.6782 15.70873513 43710
STARLINK-11449 [DTC]    
1 63012U 25032H   25317.00910008  .00419151  00000+0  30958-2 0  9997
2 63012  43.0007 178.5915 0002455 305.3862  54.6776 15.70934856 43861
