[{"OBJECT_NAME":"STARLINK-32899","OBJECT_ID":"2025-031P","EPOCH":"2025-11-13T01:24:57.153312","MEAN_MOTION":15.27657002,"ECCENTRICITY":0.00020908,"INCLINATION":43.0064,"RA_OF_ASC_NODE":82.3926,"ARG_OF_PERICENTER":263.3982,"MEAN_ANOMALY":96.6632,"EPHEMERIS_TYPE":0,"CLASSIFICATION_TYPE":"U","NORAD_CAT_ID":62994,"ELEMENT_SET_NO":999,"REV_AT_EPOCH":4325,"BSTAR":0.0017547969,"MEAN_MOTION_DOT":0.00048459,"MEAN_MOTION_DDOT":0},{"OBJECT_NAME":"STARLINK-32819","OBJECT_ID":"2025-031Q","EPOCH":"2025-11-12T08:55:18.440544","MEAN_MOTION":15.27645384,"ECCENTRICITY":0.00030192,"INCLINATION":43.0028,"RA_OF_ASC_NODE":85.8266,"ARG_OF_PERICENTER":284.3289,"MEAN_ANOMALY":75.7227,"EPHEMERIS_TYPE":0,"CLASSIFICATION_TYPE":"U","NORAD_CAT_ID":62995,"ELEMENT_SET_NO":999,"REV_AT_EPOCH":4315,"BSTAR":0.0032583437,"MEAN_MOTION_DOT":0.00090696,"MEAN_MOTION_DDOT":0},{"OBJECT_NAME":"STARLINK-32703","OBJECT_ID":"2025-031R","EPOCH":"2025-11-13T01:17:34.389600","MEAN_MOTION":15.27598854,"ECCENTRICITY":5.121e-5,"INCLINATION":43.0011,"RA_OF_ASC_NODE":82.3514,"ARG_OF_PERICENTER":317.1223,"MEAN_ANOMALY":42.9589,"EPHEMERIS_TYPE":0,"CLASSIFICATION_TYPE":"U","NORAD_CAT_ID":62996,"ELEMENT_SET_NO":999,"REV_AT_EPOCH":4325,"BSTAR":0.0010439621,"MEAN_MOTION_DOT":0.00028593,"MEAN_MOTION_DDOT":0},{"OBJECT_NAME":"STARLINK-32881","OBJECT_ID":"2025-031S","EPOCH":"2025-11-13T01:56:14.176032","MEAN_MOTION":15.27614453,"ECCENTRICITY":0.00012143,"INCLINATION":43.0018,"RA_OF_ASC_NODE":81.6819,"ARG_OF_PERICENTER":279.1666,"MEAN_ANOMALY":80.9049,"EPHEMERIS_TYPE":0,"CLASSIFICATION_TYPE":"U","NORAD_CAT_ID":62997,"ELEMENT_SET_NO":999,"REV_AT_EPOCH":4326,"BSTAR":0.0015787018,"MEAN_MOTION_DOT":0.00043483,"MEAN_MOTION_DDOT":0},{"OBJECT_NAME":"STARLINK-32898","OBJECT_ID":"2025-031T","EPOCH":"2025-11-13T01:08:19.696416","MEAN_MOTION":15.27579115,"ECCENTRICITY":0.00012157,"INCLINATION":43.0011,"RA_OF_ASC_NODE":82.3004,"ARG_OF_PERICENTER":287.2989,"MEAN_ANOMALY":72.773,"EPHEMERIS_TYPE":0,"CLASSIFICATION_TYPE":"U","NORAD_CAT_ID":62998,"ELEMENT_SET_NO":999,"REV_AT_EPOCH":4325,"BSTAR":0.00045064552,"MEAN_MOTION_DOT":0.00012159,"MEAN_MOTION_DDOT":0},{"OBJECT_NAME":"STARLINK-32658","OBJECT_ID":"2025-031U","EPOCH":"2025-11-12T08:46:03.528768","MEAN_MOTION":15.27638025,"ECCENTRICITY":0.00037949,"INCLINATION":43.0071,"RA_OF_ASC_NODE":85.7769,"ARG_OF_PERICENTER":289.1667,"MEAN_ANOMALY":70.8774,"EPHEMERIS_TYPE":0,"CLASSIFICATION_TYPE":"U","NORAD_CAT_ID":62999,"ELEMENT_SET_NO":999,"REV_AT_EPOCH":4315,"BSTAR":0.0031984209,"MEAN_MOTION_DOT":0.00088987,"MEAN_MOTION_DDOT":0},{"OBJECT_NAME":"STARLINK-32673","OBJECT_ID":"2025-031V","EPOCH":"2025-11-13T00:53:30.713856","MEAN_MOTION":15.27599472,"ECCENTRICITY":6.046e-5,"INCLINATION":42.9987,"RA_OF_ASC_NODE":82.2206,"ARG_OF_PERICENTER":302.738,"MEAN_ANOMALY":57.3414,"EPHEMERIS_TYPE":0,"CLASSIFICATION_TYPE":"U","NORAD_CAT_ID":63000,"ELEMENT_SET_NO":999,"REV_AT_EPOCH":4325,"BSTAR":0.00039347393,"MEAN_MOTION_DOT":0.00010588,"MEAN_MOTION_DDOT":0},{"OBJECT_NAME":"STARLINK-32437","OBJECT_ID":"2025-031W","EPOCH":"2025-11-13T01:30:31.606848","MEAN_MOTION":15.27589366,"ECCENTRICITY":3.79e-5,"INCLINATION":43.0038,"RA_OF_ASC_NODE":82.4201,"ARG_OF_PERICENTER":300.4581,"MEAN_ANOMALY":59.6233,"EPHEMERIS_TYPE":0,"CLASSIFICATION_TYPE":"U","NORAD_CAT_ID":63001,"ELEMENT_SET_NO":999,"REV_AT_EPOCH":4325,"BSTAR":0.0007570123,"MEAN_MOTION_DOT":0.00020633,"MEAN_MOTION_DDOT":0},{"OBJECT_NAME":"STARLINK-11448 [DTC]","OBJECT_ID":"2025-032A","EPOCH":"2025-11-12T23:42:29.720736","MEAN_MOTION":15.7085678,"ECCENTRICITY":0.0002403,"INCLINATION":43.0021,"RA_OF_ASC_NODE":178.4242,"ARG_OF_PERICENTER":269.5082,"MEAN_ANOMALY":90.551,"EPHEMERIS_TYPE":0,"CLASSIFICATION_TYPE":"U","NORAD_CAT_ID":63005,"ELEMENT_SET_NO":999,"REV_AT_EPOCH":4387,"BSTAR":8.550927e-5,"MEAN_MOTION_DOT":0.00010545,"MEAN_MOTION_DDOT":0},{"OBJECT_NAME":"STARLINK-11553 [DTC]","OBJECT_ID":"2025-032B","EPOCH":"2025-11-12T23:27:25.396992","MEAN_MOTION":15.70719037,"ECCENTRICITY":0.00019207,"INCLINATION":43.0004,"RA_OF_ASC_NODE":179.2349,"ARG_OF_PERICENTER":277.5841,"MEAN_ANOMALY":82.4808,"EPHEMERIS_TYPE":0,"CLASSIFICATION_TYPE":"U","NORAD_CAT_ID":63006,"ELEMENT_SET_NO":999,"REV_AT_EPOCH":4385,"BSTAR":0.0019234714,"MEAN_MOTION_DOT":0.00252727,"MEAN_MOTION_DDOT":0},{"OBJECT_NAME":"STARLINK-11526 [DTC]","OBJECT_ID":"2025-032C","EPOCH":"2025-11-12T23:34:50.590272","MEAN_MOTION":15.71060995,"ECCENTRICITY":0.0006025,"INCLINATION":42.9995,"RA_OF_ASC_NODE":178.3803,"ARG_OF_PERICENTER":252.8525,"MEAN_ANOMALY":107.1683,"EPHEMERIS_TYPE":0,"CLASSIFICATION_TYPE":"U","NORAD_CAT_ID":63007,"ELEMENT_SET_NO":999,"REV_AT_EPOCH":4386,"BSTAR":0.0022158579,"MEAN_MOTION_DOT":0.00297192,"MEAN_MOTION_DDOT":0},{"OBJECT_NAME":"STARLINK-11405 [DTC]","OBJECT_ID":"2025-032D","EPOCH":"2025-11-13T02:16:34.528512","MEAN_MOTION":15.70780904,"ECCENTRICITY":0.00011481,"INCLINATION":42.9987,"RA_OF_ASC_NODE":178.3893,"ARG_OF_PERICENTER":275.911,"MEAN_ANOMALY":84.1627,"EPHEMERIS_TYPE":0,"CLASSIFICATION_TYPE":"U","NORAD_CAT_ID":63008,"ELEMENT_SET_NO":999,"REV_AT_EPOCH":4372,"BSTAR":0.0017086939,"MEAN_MOTION_DOT":0.00224261,"MEAN_MOTION_DDOT":0},{"OBJECT_NAME":"STARLINK-11586 [DTC]","OBJECT_ID":"2025-032E","EPOCH":"2025-11-13T00:20:47.277312","MEAN_MOTION":15.70767087,"ECCENTRICITY":0.00010449,"INCLINATION":42.9999,"RA_OF_ASC_NODE":178.6358,"ARG_OF_PERICENTER":351.8349,"MEAN_ANOMALY":8.2501,"EPHEMERIS_TYPE":0,"CLASSIFICATION_TYPE":"U","NORAD_CAT_ID":63009,"ELEMENT_SET_NO":999,"REV_AT_EPOCH":4386,"BSTAR":0.002166431,"MEAN_MOTION_DOT":0.00286456,"MEAN_MOTION_DDOT":0},{"OBJECT_NAME":"STARLINK-11574 [DTC]","OBJECT_ID":"2025-032F","EPOCH":"2025-11-13T02:07:36.133824","MEAN_MOTION":15.70777316,"ECCENTRICITY":0.00010815,"INCLINATION":43.0001,"RA_OF_ASC_NODE":178.3374,"ARG_OF_PERICENTER":335.045,"MEAN_ANOMALY":25.0365,"EPHEMERIS_TYPE":0,"CLASSIFICATION_TYPE":"U","NORAD_CAT_ID":63010,"ELEMENT_SET_NO":999,"REV_AT_EPOCH":4387,"BSTAR":0.0013302039,"MEAN_MOTION_DOT":0.00173382,"MEAN_MOTION_DDOT":0},{"OBJECT_NAME":"STARLINK-11580 [DTC]","OBJECT_ID":"2025-032G","EPOCH":"2025-11-12T23:57:49.133376","MEAN_MOTION":15.70873513,"ECCENTRICITY":0.00017286,"INCLINATION":43.0003,"RA_OF_ASC_NODE":178.5065,"ARG_OF_PERICENTER":315.3946,"MEAN_ANOMALY":44.6782,"EPHEMERIS_TYPE":0,"CLASSIFICATION_TYPE":"U","NORAD_CAT_ID":63011,"ELEMENT_SET_NO":999,"REV_AT_EPOCH":4371,"BSTAR":0.0022699231,"MEAN_MOTION_DOT":0.00302075,"MEAN_MOTION_DDOT":0},{"OBJECT_NAME":"STARLINK-11449 [DTC]","OBJECT_ID":"2025-032H","EPOCH":"2025-11-13T00:13:06.246912","MEAN_MOTION":15.70934856,"ECCENTRICITY":0.00024554,"INCLINATION":43.0007,"RA_OF_ASC_NODE":178.5915,"ARG_OF_PERICENTER":305.3862,"MEAN_ANOMALY":54.6776,"EPHEMERIS_TYPE":0,"CLASSIFICATION_TYPE":"U","NORAD_CAT_ID":63012,"ELEMENT_SET_NO":999,"REV_AT_EPOCH":4386,"BSTAR":0.0030958376,"MEAN_MOTION_DOT":0.00419151,"MEAN_MOTION_DDOT":0}]
